CCSDS_OMM_VERS = 2.0
CREATION_DATE  = 
ORIGINATOR     = 

OBJECT_NAME    = SL-3 R/B
OBJECT_ID      = 1988-032B
CENTER_NAME    = EARTH
REF_FRAME      = TEME
TIME_SYSTEM    = UTC
MEAN_ELEMENT_THEORY = SGP/SGP4

EPOCH          = 2026-03-28T05:32:46.125024
MEAN_MOTION    = 15.20107803
ECCENTRICITY   = .0026271
INCLINATION    = 97.5211
RA_OF_ASC_NODE = 70.4220
ARG_OF_PERICENTER = 165.3561
MEAN_ANOMALY   = 194.8441

EPHEMERIS_TYPE = 0
CLASSIFICATION_TYPE = U
NORAD_CAT_ID   = 19046
ELEMENT_SET_NO = 999
REV_AT_EPOCH   = 5492
BSTAR          = .26851E-3
MEAN_MOTION_DOT = .5783E-4
MEAN_MOTION_DDOT = 0

CCSDS_OMM_VERS = 2.0
CREATION_DATE  = 
ORIGINATOR     = 

OBJECT_NAME    = SL-16 R/B
OBJECT_ID      = 1988-039B
CENTER_NAME    = EARTH
REF_FRAME      = TEME
TIME_SYSTEM    = UTC
MEAN_ELEMENT_THEORY = SGP/SGP4

EPOCH          = 2026-03-28T03:49:54.364800
MEAN_MOTION    = 14.19618788
ECCENTRICITY   = .0023632
INCLINATION    = 71.0165
RA_OF_ASC_NODE = 29.4913
ARG_OF_PERICENTER = 307.8751
MEAN_ANOMALY   = 52.0236

EPHEMERIS_TYPE = 0
CLASSIFICATION_TYPE = U
NORAD_CAT_ID   = 19120
ELEMENT_SET_NO = 999
REV_AT_EPOCH   = 96100
BSTAR          = .1059E-3
MEAN_MOTION_DOT = .176E-5
MEAN_MOTION_DDOT = 0

CCSDS_OMM_VERS = 2.0
CREATION_DATE  = 
ORIGINATOR     = 

OBJECT_NAME    = COSMOS 1953
OBJECT_ID      = 1988-050A
CENTER_NAME    = EARTH
REF_FRAME      = TEME
TIME_SYSTEM    = UTC
MEAN_ELEMENT_THEORY = SGP/SGP4

EPOCH          = 2026-03-28T03:36:28.269216
MEAN_MOTION    = 15.28805337
ECCENTRICITY   = .0012393
INCLINATION    = 82.5083
RA_OF_ASC_NODE = 139.6775
ARG_OF_PERICENTER = 65.0408
MEAN_ANOMALY   = 295.2118

EPHEMERIS_TYPE = 0
CLASSIFICATION_TYPE = U
NORAD_CAT_ID   = 19210
ELEMENT_SET_NO = 999
REV_AT_EPOCH   = 4060
BSTAR          = .24855E-3
MEAN_MOTION_DOT = .7005E-4
MEAN_MOTION_DDOT = 0

CCSDS_OMM_VERS = 2.0
CREATION_DATE  = 
ORIGINATOR     = 

OBJECT_NAME    = SL-8 R/B
OBJECT_ID      = 1988-053B
CENTER_NAME    = EARTH
REF_FRAME      = TEME
TIME_SYSTEM    = UTC
MEAN_ELEMENT_THEORY = SGP/SGP4

EPOCH          = 2026-03-28T05:02:29.626368
MEAN_MOTION    = 14.38928620
ECCENTRICITY   = .0021482
INCLINATION    = 74.0455
RA_OF_ASC_NODE = 78.3241
ARG_OF_PERICENTER = 255.1618
MEAN_ANOMALY   = 116.8622

EPHEMERIS_TYPE = 0
CLASSIFICATION_TYPE = U
NORAD_CAT_ID   = 19257
ELEMENT_SET_NO = 999
REV_AT_EPOCH   = 97926
BSTAR          = .12652E-3
MEAN_MOTION_DOT = .364E-5
MEAN_MOTION_DDOT = 0

CCSDS_OMM_VERS = 2.0
CREATION_DATE  = 
ORIGINATOR     = 

OBJECT_NAME    = COSMOS 1975
OBJECT_ID      = 1988-093A
CENTER_NAME    = EARTH
REF_FRAME      = TEME
TIME_SYSTEM    = UTC
MEAN_ELEMENT_THEORY = SGP/SGP4

EPOCH          = 2026-03-28T02:59:06.774144
MEAN_MOTION    = 15.28312271
ECCENTRICITY   = .0013379
INCLINATION    = 82.5164
RA_OF_ASC_NODE = 99.1720
ARG_OF_PERICENTER = 104.4955
MEAN_ANOMALY   = 255.7770

EPHEMERIS_TYPE = 0
CLASSIFICATION_TYPE = U
NORAD_CAT_ID   = 19573
ELEMENT_SET_NO = 999
REV_AT_EPOCH   = 2222
BSTAR          = .2489E-3
MEAN_MOTION_DOT = .6913E-4
MEAN_MOTION_DDOT = 0

CCSDS_OMM_VERS = 2.0
CREATION_DATE  = 
ORIGINATOR     = 

OBJECT_NAME    = SL-14 R/B
OBJECT_ID      = 1988-093B
CENTER_NAME    = EARTH
REF_FRAME      = TEME
TIME_SYSTEM    = UTC
MEAN_ELEMENT_THEORY = SGP/SGP4

EPOCH          = 2026-03-28T04:41:44.530656
MEAN_MOTION    = 14.85678384
ECCENTRICITY   = .0020166
INCLINATION    = 82.5338
RA_OF_ASC_NODE = 24.6742
ARG_OF_PERICENTER = 341.2690
MEAN_ANOMALY   = 142.6373

EPHEMERIS_TYPE = 0
CLASSIFICATION_TYPE = U
NORAD_CAT_ID   = 19574
ELEMENT_SET_NO = 999
REV_AT_EPOCH   = 376
BSTAR          = .69396E-4
MEAN_MOTION_DOT = .628E-5
MEAN_MOTION_DDOT = 0

CCSDS_OMM_VERS = 2.0
CREATION_DATE  = 
ORIGINATOR     = 

OBJECT_NAME    = SL-16 R/B
OBJECT_ID      = 1988-102B
CENTER_NAME    = EARTH
REF_FRAME      = TEME
TIME_SYSTEM    = UTC
MEAN_ELEMENT_THEORY = SGP/SGP4

EPOCH          = 2026-03-28T04:47:02.561280
MEAN_MOTION    = 14.16153627
ECCENTRICITY   = .0015084
INCLINATION    = 70.9971
RA_OF_ASC_NODE = 112.5510
ARG_OF_PERICENTER = 333.8286
MEAN_ANOMALY   = 26.2073

EPHEMERIS_TYPE = 0
CLASSIFICATION_TYPE = U
NORAD_CAT_ID   = 19650
ELEMENT_SET_NO = 999
REV_AT_EPOCH   = 92951
BSTAR          = -.59344E-4
MEAN_MOTION_DOT = -.165E-5
MEAN_MOTION_DDOT = 0

CCSDS_OMM_VERS = 2.0
CREATION_DATE  = 
ORIGINATOR     = 

OBJECT_NAME    = INTERCOSMOS 24
OBJECT_ID      = 1989-080A
CENTER_NAME    = EARTH
REF_FRAME      = TEME
TIME_SYSTEM    = UTC
MEAN_ELEMENT_THEORY = SGP/SGP4

EPOCH          = 2026-03-28T01:43:27.876288
MEAN_MOTION    = 12.59581416
ECCENTRICITY   = .118684
INCLINATION    = 82.6010
RA_OF_ASC_NODE = 92.4300
ARG_OF_PERICENTER = 250.1141
MEAN_ANOMALY   = 96.8434

EPHEMERIS_TYPE = 0
CLASSIFICATION_TYPE = U
NORAD_CAT_ID   = 20261
ELEMENT_SET_NO = 999
REV_AT_EPOCH   = 66911
BSTAR          = .15401E-3
MEAN_MOTION_DOT = .521E-5
MEAN_MOTION_DDOT = 0

CCSDS_OMM_VERS = 2.0
CREATION_DATE  = 
ORIGINATOR     = 

OBJECT_NAME    = SL-14 R/B
OBJECT_ID      = 1989-080C
CENTER_NAME    = EARTH
REF_FRAME      = TEME
TIME_SYSTEM    = UTC
MEAN_ELEMENT_THEORY = SGP/SGP4

EPOCH          = 2026-03-28T04:48:13.040352
MEAN_MOTION    = 12.50511585
ECCENTRICITY   = .1230892
INCLINATION    = 82.5956
RA_OF_ASC_NODE = 161.3085
ARG_OF_PERICENTER = 142.4599
MEAN_ANOMALY   = 226.9263

EPHEMERIS_TYPE = 0
CLASSIFICATION_TYPE = U
NORAD_CAT_ID   = 20262
ELEMENT_SET_NO = 999
REV_AT_EPOCH   = 66246
BSTAR          = .11064E-3
MEAN_MOTION_DOT = .395E-5
MEAN_MOTION_DDOT = 0

CCSDS_OMM_VERS = 2.0
CREATION_DATE  = 
ORIGINATOR     = 

OBJECT_NAME    = DELTA 1 R/B
OBJECT_ID      = 1989-089B
CENTER_NAME    = EARTH
REF_FRAME      = TEME
TIME_SYSTEM    = UTC
MEAN_ELEMENT_THEORY = SGP/SGP4

EPOCH          = 2026-03-28T04:12:19.090944
MEAN_MOTION    = 14.50677863
ECCENTRICITY   = .0070544
INCLINATION    = 97.0693
RA_OF_ASC_NODE = 291.6716
ARG_OF_PERICENTER = 64.7375
MEAN_ANOMALY   = 296.1112

EPHEMERIS_TYPE = 0
CLASSIFICATION_TYPE = U
NORAD_CAT_ID   = 20323
ELEMENT_SET_NO = 999
REV_AT_EPOCH   = 89841
BSTAR          = .94906E-4
MEAN_MOTION_DOT = .35E-5
MEAN_MOTION_DDOT = 0

CCSDS_OMM_VERS = 2.0
CREATION_DATE  = 
ORIGINATOR     = 

OBJECT_NAME    = ARIANE 40 R/B
OBJECT_ID      = 1990-005H
CENTER_NAME    = EARTH
REF_FRAME      = TEME
TIME_SYSTEM    = UTC
MEAN_ELEMENT_THEORY = SGP/SGP4

EPOCH          = 2026-03-28T03:49:07.084128
MEAN_MOTION    = 14.39882224
ECCENTRICITY   = .0010948
INCLINATION    = 98.3045
RA_OF_ASC_NODE = 147.2668
ARG_OF_PERICENTER = 144.5330
MEAN_ANOMALY   = 215.6589

EPHEMERIS_TYPE = 0
CLASSIFICATION_TYPE = U
NORAD_CAT_ID   = 20443
ELEMENT_SET_NO = 999
REV_AT_EPOCH   = 89546
BSTAR          = .9414E-4
MEAN_MOTION_DOT = .254E-5
MEAN_MOTION_DDOT = 0

CCSDS_OMM_VERS = 2.0
CREATION_DATE  = 
ORIGINATOR     = 

OBJECT_NAME    = DELTA 2 R/B(1)
OBJECT_ID      = 1990-008B
CENTER_NAME    = EARTH
REF_FRAME      = TEME
TIME_SYSTEM    = UTC
MEAN_ELEMENT_THEORY = SGP/SGP4

EPOCH          = 2026-03-27T23:13:48.810720
MEAN_MOTION    = 15.58359382
ECCENTRICITY   = .0078041
INCLINATION    = 35.6038
RA_OF_ASC_NODE = 54.6827
ARG_OF_PERICENTER = 69.6240
MEAN_ANOMALY   = 291.2859

EPHEMERIS_TYPE = 0
CLASSIFICATION_TYPE = U
NORAD_CAT_ID   = 20453
ELEMENT_SET_NO = 999
REV_AT_EPOCH   = 92898
BSTAR          = .76859E-3
MEAN_MOTION_DOT = .70325E-3
MEAN_MOTION_DDOT = 0

