SL-3 R/B                
1 19046U 88032B   26087.23108941  .00005783  00000+0  26851-3 0  9999
2 19046  97.5211  70.4220 0026271 165.3561 194.8441 15.20107803 54925
SL-16 R/B               
1 19120U 88039B   26087.15965700  .00000176  00000+0  10590-3 0  9998
2 19120  71.0165  29.4913 0023632 307.8751  52.0236 14.19618788961007
COSMOS 1953             
1 19210U 88050A   26087.15032719  .00007005  00000+0  24855-3 0  9993
2 19210  82.5083 139.6775 0012393  65.0408 295.2118 15.28805337 40600
SL-8 R/B                
1 19257U 88053B   26087.21006512  .00000364  00000+0  12652-3 0  9999
2 19257  74.0455  78.3241 0021482 255.1618 116.8622 14.38928620979263
COSMOS 1975             
1 19573U 88093A   26087.12438396  .00006913  00000+0  24890-3 0  9996
2 19573  82.5164  99.1720 0013379 104.4955 255.7770 15.28312271 22225
SL-14 R/B               
1 19574U 88093B   26087.19565429  .00000628  00000+0  69396-4 0  9990
2 19574  82.5338  24.6742 0020166 341.2690 142.6373 14.85678384  3768
SL-16 R/B               
1 19650U 88102B   26087.19933520 -.00000165  00000+0 -59344-4 0  9997
2 19650  70.9971 112.5510 0015084 333.8286  26.2073 14.16153627929514
INTERCOSMOS 24          
1 20261U 89080A   26087.07185042  .00000521  00000+0  15401-3 0  9997
2 20261  82.6010  92.4300 1186840 250.1141  96.8434 12.59581416669119
SL-14 R/B               
1 20262U 89080C   26087.20015093  .00000395  00000+0  11064-3 0  9991
2 20262  82.5956 161.3085 1230892 142.4599 226.9263 12.50511585662469
DELTA 1 R/B             
1 20323U 89089B   26087.17522096  .00000350  00000+0  94906-4 0  9998
2 20323  97.0693 291.6716 0070544  64.7375 296.1112 14.50677863898419
ARIANE 40 R/B           
1 20443U 90005H   26087.15910977  .00000254  00000+0  94140-4 0  9991
2 20443  98.3045 147.2668 0010948 144.5330 215.6589 14.39882224895461
DELTA 2 R/B(1)          
1 20453U 90008B   26086.96792605  .00070325  00000+0  76859-3 0  9991
2 20453  35.6038  54.6827 0078041  69.6240 291.2859 15.58359382928981
